SatCatId,ObjectName,LaunchYear,OrbitalPeriod,LaunchMass,StatusCode,Inclination,Status,UcsData,OrbitClassEstimated,LaunchSiteCountry,Owner,UseType,Purpose,LaunchVehicleClass,TLE1,TLE2,MeanMotion,Eccentricity,OrbitClass
21855,COSMOS 2179 [GLONASS],1992,675.73,-1.0,-,64.49,Inactive,0,MEO,Kazakhstan,Russia/USSR,Unknown,Unknown,Unknown,1 21855U 92005C   24184.31232184 -.00000053  00000+0  00000+0 0  9997,2 21855  64.4911  94.6203 0012403 237.8630 225.5242  2.13102645252118,2.13102645,0.0012403,MEO
13669,RADUGA 11,1982,1473.74,-1.0,-,10.63,Inactive,0,GSO,Kazakhstan,Russia/USSR,Unknown,Unknown,Unknown,1 13669U 82113A   24184.11012131 -.00000160  00000+0  00000+0 0  9995,2 13669  10.6255 316.1464 0039442 272.9528  83.5388  0.97710285114547,0.97710285,0.0039442,GSO
38248,RISAT-1,2012,94.46,1858.0,-,97.52,Inactive,1,LEO,India,India,Military,Earth Observation,PSLV,1 38248U 12017A   24185.55793193  .00011531  00000+0  47097-3 0  9998,2 38248  97.5216 203.0277 0003681 153.1940 206.9488 15.24546005672092,15.24546005,0.0003681,LEO
5485,SHINSEI (MS-F2),1971,113.01,-1.0,-,32.06,Inactive,0,LEO,Japan,Japan,Unknown,Unknown,Unknown,1 05485U 71080A   24184.78683660  .00000023  00000+0  11144-4 0  9990,2 05485  32.0567 314.2484 0640048 355.5700   3.9420 12.74198278458093,12.74198278,0.0640048,LEO
21873,USA 78,1992,1453.92,-1.0,UNK,14.6,Inactive,0,GSO,USA,USA,Unknown,Unknown,Unknown,1 21873U 92006A   24184.32083962 -.00000270  00000+0  00000+0 0  9998,2 21873  14.5957   7.9555 0002266 344.9506  16.5945  0.99042317 18118,0.99042317,0.0002266,GSO
21875,COSMOS 2180,1992,104.81,-1.0,UNK,82.93,Inactive,0,LEO,Russia,Russia/USSR,Unknown,Unknown,Unknown,1 21875U 92008A   24185.57585060  .00000086  00000+0  75499-4 0  9999,2 21875  82.9266  30.3589 0038100 155.7950 257.5431 13.73865263623079,13.73865263,0.00381,LEO
21890,NAVSTAR 24 (USA 79),1992,750.67,-1.0,-,54.23,Inactive,0,MEO,USA,USA,Unknown,Unknown,Unknown,1 21890U 92009A   24182.33301326  .00000111  00000+0  00000+0 0  9999,2 21890  54.2255 192.1841 0047529  48.6048  30.2148  1.91828773232346,1.91828773,0.0047529,MEO
21893,SUPERBIRD-B1,1992,1453.69,-1.0,-,14.22,Inactive,0,GSO,French Guiana,Japan,Unknown,Unknown,Unknown,1 21893U 92010A   24184.78703046 -.00000293  00000+0  00000+0 0  9992,2 21893  14.2154  11.4927 0016773 114.0538 237.1851  0.99058575117231,0.99058575,0.0016773,GSO
21894,INSAT-2DT (ARABSAT-1C),1992,1459.19,-1.0,-,13.81,Inactive,0,GSO,French Guiana,India,Unknown,Unknown,Unknown,1 21894U 92010B   24185.25897255 -.00000161  00000+0  00000+0 0  9996,2 21894  13.8103  16.7370 0024066 255.9407 115.0014  0.98685376117188,0.98685376,0.0024066,GSO
21902,COSMOS 2181,1992,104.92,-1.0,UNK,82.94,Inactive,0,LEO,Russia,Russia/USSR,Unknown,Unknown,Unknown,1 21902U 92012A   24185.53516858  .00000054  00000+0  42996-4 0  9991,2 21902  82.9439 114.3736 0027003 262.0295 272.1576 13.72483926618734,13.72483926,0.0027003,LEO
21906,GALAXY 5 (G-5),1992,1450.35,-1.0,-,12.72,Inactive,0,GSO,USA,USA,Unknown,Unknown,Unknown,1 21906U 92013A   24184.52572390 -.00000154  00000+0  00000+0 0  9994,2 21906  12.7169  23.3647 0017089  81.6050 289.5802  0.99286515 39153,0.99286515,0.0017089,GSO
13718,METEOR 2-9,1982,101.72,-1.0,UNK,81.25,Inactive,0,LEO,Russia,Russia/USSR,Unknown,Unknown,Unknown,1 13718U 82116A   24185.51159882  .00000161  00000+0  74430-4 0  9996,2 13718  81.2510 328.1653 0053314 199.5114 160.4021 14.15707503145583,14.15707503,0.0053314,LEO
21922,GORIZONT 25,1992,1442.28,-1.0,-,14.01,Inactive,0,GSO,Kazakhstan,Russia/USSR,Unknown,Unknown,Unknown,1 21922U 92017A   24184.98403542  .00000008  00000+0  00000+0 0  9995,2 21922  14.0101 347.7625 0028098 101.8772 255.8018  0.99842016117807,0.99842016,0.0028098,GSO
13736,OPS 9845 (DMSP 5D-2 F6),1982,100.71,-1.0,-,98.59,Inactive,0,LEO,USA,USA,Unknown,Unknown,Unknown,1 13736U 82118A   24185.10633859  .00000322  00000+0  14193-3 0  9992,2 13736  98.5913  10.6275 0006373 263.2737  96.7720 14.29910720163171,14.2991072,0.0006373,LEO
21930,NAVSTAR 25 (USA 80),1992,767.34,-1.0,-,55.51,Inactive,0,MEO,USA,USA,Unknown,Unknown,Unknown,1 21930U 92019A   24185.51011810 -.00000112  00000+0  00000+0 0  9996,2 21930  55.5051 330.0273 0029581 330.3596  30.5786  1.87660477228041,1.87660477,0.0029581,MEO
5547,COSMOS 444,1971,114.09,-1.0,UNK,74.03,Inactive,0,LEO,Russia,Russia/USSR,Unknown,Unknown,Unknown,1 05547U 71086A   24184.84185708 -.00000009  00000+0  40785-4 0  9990,2 05547  74.0298 342.3100 0119774  28.1327 332.6133 12.62117194428894,12.62117194,0.0119774,LEO
5548,COSMOS 445,1971,114.45,-1.0,UNK,74.03,Inactive,0,LEO,Russia,Russia/USSR,Unknown,Unknown,Unknown,1 05548U 71086B   24184.72646388  .00000007  00000+0  13886-3 0  9992,2 05548  74.0260 172.5177 0103832 250.9751 283.1610 12.58209357421357,12.58209357,0.0103832,LEO
5549,COSMOS 446,1971,114.79,-1.0,UNK,74.03,Inactive,0,LEO,Russia,Russia/USSR,Unknown,Unknown,Unknown,1 05549U 71086C   24184.79084655 -.00000001  00000+0  87524-4 0  9999,2 05549  74.0296 355.1144 0083233 100.9955 260.0474 12.54442341414185,12.54442341,0.0083233,LEO
5550,COSMOS 447,1971,115.14,-1.0,UNK,74.03,Inactive,0,LEO,Russia,Russia/USSR,Unknown,Unknown,Unknown,1 05550U 71086D   24184.91578699  .00000012  00000+0  18193-3 0  9997,2 05550  74.0257 179.4811 0066552 317.8075  77.0352 12.50605793406909,12.50605793,0.0066552,LEO
5551,COSMOS 448,1971,115.5,-1.0,UNK,74.03,Inactive,0,LEO,Russia,Russia/USSR,Unknown,Unknown,Unknown,1 05551U 71086E   24185.53831948  .00000000  00000+0  10661-3 0  9995,2 05551  74.0296   3.2950 0048997 178.2270 238.5505 12.46746794399783,12.46746794,0.0048997,LEO
5552,COSMOS 449,1971,116.25,-1.0,UNK,74.03,Inactive,0,LEO,Russia,Russia/USSR,Unknown,Unknown,Unknown,1 05552U 71086F   24184.89572493  .00000009  00000+0  18544-3 0  9998,2 05552  74.0292  24.2254 0037538 307.7256 157.1310 12.38717784384032,12.38717784,0.0037538,LEO
5553,COSMOS 450,1971,115.88,-1.0,UNK,74.03,Inactive,0,LEO,Russia,Russia/USSR,Unknown,Unknown,Unknown,1 05553U 71086G   24185.49872236  .00000010  00000+0  18163-3 0  9993,2 05553  74.0254 196.2241 0042194  63.5169  52.9564 12.42684138391976,12.42684138,0.0042194,LEO
5554,COSMOS 451,1971,116.67,-1.0,UNK,74.03,Inactive,0,LEO,Russia,Russia/USSR,Unknown,Unknown,Unknown,1 05554U 71086H   24184.62705956  .00000006  00000+0  16796-3 0  9997,2 05554  74.0263 231.9811 0053337 206.7200 272.1468 12.34294071375510,12.34294071,0.0053337,LEO
21937,COSMOS 2184,1992,104.86,-1.0,UNK,82.93,Inactive,0,LEO,Russia,Russia/USSR,Unknown,Unknown,Unknown,1 21937U 92020A   24185.53463924  .00000057  00000+0  45379-4 0  9994,2 21937  82.9330 283.1213 0032741 340.0121  31.2387 13.73285813614621,13.73285813,0.0032741,LEO
21939,TELECOM 2B,1992,1446.98,-1.0,-,14.28,Inactive,0,GSO,French Guiana,France,Unknown,Unknown,Unknown,1 21939U 92021A   24184.72116691 -.00000072  00000+0  00000+0 0  9998,2 21939  14.2830   8.9665 0020782  89.8449 269.1208  0.99517206110277,0.99517206,0.0020782,GSO
5557,OPS 4311 (DMSP 5B F1),1971,100.85,-1.0,-,99.06,Inactive,0,LEO,USA,USA,Unknown,Unknown,Unknown,1 05557U 71087A   24185.20520904  .00000382  00000+0  17109-3 0  9990,2 05557  99.0599 252.2278 0051140 172.7295 187.4637 14.27830851738796,14.27830851,0.005114,LEO
21940,INMARSAT 2-F4,1992,1470.22,-1.0,-,11.5,Inactive,0,GSO,French Guiana,INMARSAT,Unknown,Unknown,Unknown,1 21940U 92021B   24184.88944553 -.00000153  00000+0  00000+0 0  9993,2 21940  11.5030  19.3115 0009525 133.4027  42.7766  0.97944173116902,0.97944173,0.0009525,GSO
5560,ASTEX 1,1971,99.35,-1.0,UNK,92.72,Inactive,0,LEO,USA,USA,Unknown,Unknown,Unknown,1 05560U 71089A   24185.10745493  .00000999  00000+0  26112-3 0  9995,2 05560  92.7208 312.9816 0016034   7.4406 352.7034 14.49425020773519,14.4942502,0.0016034,LEO
13757,COSMOS 1428,1983,104.58,-1.0,UNK,82.91,Inactive,0,LEO,Russia,Russia/USSR,Unknown,Unknown,Unknown,1 13757U 83001A   24185.19385090  .00000087  00000+0  72277-4 0  9993,2 13757  82.9108 214.7682 0036132  80.7145 346.8090 13.76978568 83723,13.76978568,0.0036132,LEO
21949,USA 81,1992,100.56,-1.0,UNK,85.01,Inactive,0,LEO,USA,USA,Unknown,Unknown,Unknown,1 21949U 92023A   24184.90374175  .00000342  00000+0  12052-3 0  9997,2 21949  85.0087 126.0802 0001959 111.6305 248.5096 14.31917985  6799,14.31917985,0.0001959,LEO
13761,COSMOS 1429,1983,115.81,-1.0,UNK,74.02,Inactive,0,LEO,Russia,Russia/USSR,Unknown,Unknown,Unknown,1 13761U 83002A   24184.84673281 -.00000024  00000+0 -64255-4 0  9992,2 13761  74.0246  84.7974 0032616 113.2327 312.3334 12.43423020881602,12.4342302,0.0032616,LEO
13762,COSMOS 1430,1983,115.6,-1.0,UNK,74.03,Inactive,0,LEO,Russia,Russia/USSR,Unknown,Unknown,Unknown,1 13762U 83002B   24184.90206007  .00000001  00000+0  11693-3 0  9998,2 13762  74.0252 359.4410 0020130  23.9241  84.0290 12.45709094885302,12.45709094,0.002013,LEO
13763,COSMOS 1431,1983,115.41,-1.0,UNK,74.02,Inactive,0,LEO,Russia,Russia/USSR,Unknown,Unknown,Unknown,1 13763U 83002C   24184.75328505 -.00000023  00000+0 -50183-4 0  9994,2 13763  74.0247 284.0776 0012001 267.4932 210.5100 12.47732851888077,12.47732851,0.0012001,LEO
38340,HORYU-2,2012,97.17,7.1,-,98.17,Inactive,1,LEO,Japan,Japan,Civil,Technology Development,H2A,1 38340U 12025D   24185.56082409  .00004380  00000+0  55857-3 0  9999,2 38340  98.1661 285.6852 0009339 351.8906   8.2153 14.81995490653062,14.8199549,0.0009339,LEO
13764,COSMOS 1432,1983,115.21,-1.0,UNK,74.02,Inactive,0,LEO,Russia,Russia/USSR,Unknown,Unknown,Unknown,1 13764U 83002D   24185.22695873  .00000014  00000+0  19973-3 0  9992,2 13764  74.0213 203.7264 0002231  70.8201   2.8061 12.49870902891647,12.49870902,0.0002231,LEO
13765,COSMOS 1433,1983,115.02,-1.0,UNK,74.02,Inactive,0,LEO,Russia,Russia/USSR,Unknown,Unknown,Unknown,1 13765U 83002E   24184.94057580 -.00000023  00000+0 -42170-4 0  9996,2 13765  74.0236 126.4524 0014066 321.7119 107.9072 12.51932477894728,12.51932477,0.0014066,LEO
